GLOBALSTAR M045         
1 25676U 99019A   24117.84771109 -.00000039  00000+0  48344-3 0  9994
2 25676  51.9989  51.8954 0000858  91.1656 314.0260 12.27036506142285
GLOBALSTAR M019         
1 25677U 99019B   24117.88078348 -.00000117  00000+0 -28154-3 0  9999
2 25677  51.9851 152.8821 0001242 196.0389 334.7821 12.13853911134583
GLOBALSTAR M044         
1 25678U 99019C   24117.80376490 -.00000062  00000+0  30016-3 0  9999
2 25678  51.9988  52.3617 0006243 320.9983  54.7223 11.90231388121747
GLOBALSTAR M042         
1 25679U 99019D   24117.33184338 -.00000070  00000+0  20570-3 0  9999
2 25679  51.9991 147.7249 0003144 158.9740 214.6923 12.22060549134292
GLOBALSTAR M025         
1 25770U 99031A   24117.93306500 -.00000057  00000+0  32850-3 0  9997
2 25770  51.9847  43.5447 0001251 154.0443 282.0679 11.22550446434964
GLOBALSTAR M049         
1 25771U 99031B   24117.83537754 -.00000051  00000+0  50903-3 0  9997
2 25771  51.9890  57.6096 0003113  35.2442 324.8560 11.12103380 71104
GLOBALSTAR M047         
1 25772U 99031C   24117.60084279 -.00000085  00000+0 -42809-3 0  9996
2 25772  51.9818  94.9110 0016415 268.2251  91.6675 11.31920317423937
GLOBALSTAR M052         
1 25773U 99031D   24117.85588854 -.00000080  00000+0 -48796-3 0  9998
2 25773  51.9842 172.0993 0002997 202.3021 328.9745 11.15050739432068
